CCSDS_OMM_VERS = 2.0
CREATION_DATE  = 
ORIGINATOR     = 

OBJECT_NAME    = ALOS (DAICHI)
OBJECT_ID      = 2006-002A
CENTER_NAME    = EARTH
REF_FRAME      = TEME
TIME_SYSTEM    = UTC
MEAN_ELEMENT_THEORY = SGP/SGP4

EPOCH          = 2026-01-14T20:30:57.234240
MEAN_MOTION    = 14.69602509
ECCENTRICITY   = .0002145
INCLINATION    = 98.1133
RA_OF_ASC_NODE = 331.1191
ARG_OF_PERICENTER = 90.6145
MEAN_ANOMALY   = 269.5306

EPHEMERIS_TYPE = 0
CLASSIFICATION_TYPE = U
NORAD_CAT_ID   = 28931
ELEMENT_SET_NO = 999
REV_AT_EPOCH   = 6557
BSTAR          = .14571E-3
MEAN_MOTION_DOT = .816E-5
MEAN_MOTION_DDOT = 0

CCSDS_OMM_VERS = 2.0
CREATION_DATE  = 
ORIGINATOR     = 

OBJECT_NAME    = H-2A R/B
OBJECT_ID      = 2006-002B
CENTER_NAME    = EARTH
REF_FRAME      = TEME
TIME_SYSTEM    = UTC
MEAN_ELEMENT_THEORY = SGP/SGP4

EPOCH          = 2026-01-14T22:37:35.216544
MEAN_MOTION    = 15.15289628
ECCENTRICITY   = .00544336
INCLINATION    = 98.2328
RA_OF_ASC_NODE = 157.4260
ARG_OF_PERICENTER = 64.7177
MEAN_ANOMALY   = 295.9679

EPHEMERIS_TYPE = 0
CLASSIFICATION_TYPE = U
NORAD_CAT_ID   = 28932
ELEMENT_SET_NO = 999
REV_AT_EPOCH   = 8629
BSTAR          = .24306789E-3
MEAN_MOTION_DOT = .4668E-4
MEAN_MOTION_DDOT = 0

CCSDS_OMM_VERS = 2.0
CREATION_DATE  = 
ORIGINATOR     = 

OBJECT_NAME    = RESURS-DK 1
OBJECT_ID      = 2006-021A
CENTER_NAME    = EARTH
REF_FRAME      = TEME
TIME_SYSTEM    = UTC
MEAN_ELEMENT_THEORY = SGP/SGP4

EPOCH          = 2026-01-14T23:15:11.387520
MEAN_MOTION    = 15.12372884
ECCENTRICITY   = .00057499
INCLINATION    = 69.9334
RA_OF_ASC_NODE = 15.9479
ARG_OF_PERICENTER = 229.7286
MEAN_ANOMALY   = 130.3378

EPHEMERIS_TYPE = 0
CLASSIFICATION_TYPE = U
NORAD_CAT_ID   = 29228
ELEMENT_SET_NO = 999
REV_AT_EPOCH   = 7940
BSTAR          = .82204724E-4
MEAN_MOTION_DOT = .1322E-4
MEAN_MOTION_DDOT = 0

CCSDS_OMM_VERS = 2.0
CREATION_DATE  = 
ORIGINATOR     = 

OBJECT_NAME    = CZ-4B R/B
OBJECT_ID      = 2006-046C
CENTER_NAME    = EARTH
REF_FRAME      = TEME
TIME_SYSTEM    = UTC
MEAN_ELEMENT_THEORY = SGP/SGP4

EPOCH          = 2026-01-14T13:44:14.806176
MEAN_MOTION    = 15.16249814
ECCENTRICITY   = .0035326
INCLINATION    = 97.5694
RA_OF_ASC_NODE = 59.6227
ARG_OF_PERICENTER = 94.9540
MEAN_ANOMALY   = 265.5726

EPHEMERIS_TYPE = 0
CLASSIFICATION_TYPE = U
NORAD_CAT_ID   = 29507
ELEMENT_SET_NO = 999
REV_AT_EPOCH   = 5184
BSTAR          = .1229E-3
MEAN_MOTION_DOT = .2344E-4
MEAN_MOTION_DDOT = 0

CCSDS_OMM_VERS = 2.0
CREATION_DATE  = 
ORIGINATOR     = 

OBJECT_NAME    = CZ-2C R/B
OBJECT_ID      = 2007-010B
CENTER_NAME    = EARTH
REF_FRAME      = TEME
TIME_SYSTEM    = UTC
MEAN_ELEMENT_THEORY = SGP/SGP4

EPOCH          = 2026-01-14T19:56:56.620896
MEAN_MOTION    = 14.20224512
ECCENTRICITY   = .00601305
INCLINATION    = 98.3972
RA_OF_ASC_NODE = 130.8170
ARG_OF_PERICENTER = 90.9134
MEAN_ANOMALY   = 269.8934

EPHEMERIS_TYPE = 0
CLASSIFICATION_TYPE = U
NORAD_CAT_ID   = 31114
ELEMENT_SET_NO = 999
REV_AT_EPOCH   = 97207
BSTAR          = .4393843E-4
MEAN_MOTION_DOT = .55E-6
MEAN_MOTION_DDOT = 0

CCSDS_OMM_VERS = 2.0
CREATION_DATE  = 
ORIGINATOR     = 

OBJECT_NAME    = COSMO-SKYMED 1
OBJECT_ID      = 2007-023A
CENTER_NAME    = EARTH
REF_FRAME      = TEME
TIME_SYSTEM    = UTC
MEAN_ELEMENT_THEORY = SGP/SGP4

EPOCH          = 2026-01-14T23:10:44.677632
MEAN_MOTION    = 14.96049619
ECCENTRICITY   = .00012342
INCLINATION    = 97.8843
RA_OF_ASC_NODE = 205.5902
ARG_OF_PERICENTER = 74.9723
MEAN_ANOMALY   = 285.1634

EPHEMERIS_TYPE = 0
CLASSIFICATION_TYPE = U
NORAD_CAT_ID   = 31598
ELEMENT_SET_NO = 999
REV_AT_EPOCH   = 687
BSTAR          = .16367871E-3
MEAN_MOTION_DOT = .1779E-4
MEAN_MOTION_DDOT = 0

CCSDS_OMM_VERS = 2.0
CREATION_DATE  = 
ORIGINATOR     = 

OBJECT_NAME    = COSMOS 2428
OBJECT_ID      = 2007-029A
CENTER_NAME    = EARTH
REF_FRAME      = TEME
TIME_SYSTEM    = UTC
MEAN_ELEMENT_THEORY = SGP/SGP4

EPOCH          = 2026-01-14T22:36:59.503104
MEAN_MOTION    = 14.12910030
ECCENTRICITY   = .00056697
INCLINATION    = 70.9398
RA_OF_ASC_NODE = 316.1693
ARG_OF_PERICENTER = 339.1212
MEAN_ANOMALY   = 20.9677

EPHEMERIS_TYPE = 0
CLASSIFICATION_TYPE = U
NORAD_CAT_ID   = 31792
ELEMENT_SET_NO = 999
REV_AT_EPOCH   = 95650
BSTAR          = .20007247E-3
MEAN_MOTION_DOT = .325E-5
MEAN_MOTION_DDOT = 0

CCSDS_OMM_VERS = 2.0
CREATION_DATE  = 
ORIGINATOR     = 

OBJECT_NAME    = SL-16 R/B
OBJECT_ID      = 2007-029B
CENTER_NAME    = EARTH
REF_FRAME      = TEME
TIME_SYSTEM    = UTC
MEAN_ELEMENT_THEORY = SGP/SGP4

EPOCH          = 2026-01-14T23:26:05.000064
MEAN_MOTION    = 14.14824115
ECCENTRICITY   = .00022479
INCLINATION    = 70.9762
RA_OF_ASC_NODE = 285.2933
ARG_OF_PERICENTER = 273.5180
MEAN_ANOMALY   = 168.1988

EPHEMERIS_TYPE = 0
CLASSIFICATION_TYPE = U
NORAD_CAT_ID   = 31793
ELEMENT_SET_NO = 999
REV_AT_EPOCH   = 95777
BSTAR          = -.11389962E-3
MEAN_MOTION_DOT = -.268E-5
MEAN_MOTION_DDOT = 0

CCSDS_OMM_VERS = 2.0
CREATION_DATE  = 
ORIGINATOR     = 

OBJECT_NAME    = KORONAS-FOTON
OBJECT_ID      = 2009-003A
CENTER_NAME    = EARTH
REF_FRAME      = TEME
TIME_SYSTEM    = UTC
MEAN_ELEMENT_THEORY = SGP/SGP4

EPOCH          = 2026-01-14T20:37:44.408928
MEAN_MOTION    = 15.41902957
ECCENTRICITY   = .00112151
INCLINATION    = 82.4319
RA_OF_ASC_NODE = 331.7689
ARG_OF_PERICENTER = 3.5990
MEAN_ANOMALY   = 356.5335

EPHEMERIS_TYPE = 0
CLASSIFICATION_TYPE = U
NORAD_CAT_ID   = 33504
ELEMENT_SET_NO = 999
REV_AT_EPOCH   = 93744
BSTAR          = .12987722E-3
MEAN_MOTION_DOT = .5565E-4
MEAN_MOTION_DDOT = 0

CCSDS_OMM_VERS = 2.0
CREATION_DATE  = 
ORIGINATOR     = 

OBJECT_NAME    = CZ-2C R/B
OBJECT_ID      = 2011-030B
CENTER_NAME    = EARTH
REF_FRAME      = TEME
TIME_SYSTEM    = UTC
MEAN_ELEMENT_THEORY = SGP/SGP4

EPOCH          = 2026-01-14T20:03:17.688960
MEAN_MOTION    = 14.81010341
ECCENTRICITY   = .0053069
INCLINATION    = 97.8454
RA_OF_ASC_NODE = 333.2201
ARG_OF_PERICENTER = 164.0207
MEAN_ANOMALY   = 256.3337

EPHEMERIS_TYPE = 0
CLASSIFICATION_TYPE = U
NORAD_CAT_ID   = 37731
ELEMENT_SET_NO = 999
REV_AT_EPOCH   = 78212
BSTAR          = .99354E-4
MEAN_MOTION_DOT = .734E-5
MEAN_MOTION_DDOT = 0

CCSDS_OMM_VERS = 2.0
CREATION_DATE  = 
ORIGINATOR     = 

OBJECT_NAME    = H-2A R/B
OBJECT_ID      = 2012-025E
CENTER_NAME    = EARTH
REF_FRAME      = TEME
TIME_SYSTEM    = UTC
MEAN_ELEMENT_THEORY = SGP/SGP4

EPOCH          = 2026-01-14T20:19:40.433664
MEAN_MOTION    = 14.94679847
ECCENTRICITY   = .0046185
INCLINATION    = 98.4638
RA_OF_ASC_NODE = 337.6435
ARG_OF_PERICENTER = 127.4458
MEAN_ANOMALY   = 233.0976

EPHEMERIS_TYPE = 0
CLASSIFICATION_TYPE = U
NORAD_CAT_ID   = 38341
ELEMENT_SET_NO = 999
REV_AT_EPOCH   = 74017
BSTAR          = .19121E-3
MEAN_MOTION_DOT = .2048E-4
MEAN_MOTION_DDOT = 0

CCSDS_OMM_VERS = 2.0
CREATION_DATE  = 
ORIGINATOR     = 

OBJECT_NAME    = SHIJIAN-16 (SJ-16)
OBJECT_ID      = 2013-057A
CENTER_NAME    = EARTH
REF_FRAME      = TEME
TIME_SYSTEM    = UTC
MEAN_ELEMENT_THEORY = SGP/SGP4

EPOCH          = 2026-01-14T22:15:02.721312
MEAN_MOTION    = 14.92139770
ECCENTRICITY   = .00178268
INCLINATION    = 74.9735
RA_OF_ASC_NODE = 286.8543
ARG_OF_PERICENTER = 243.2442
MEAN_ANOMALY   = 116.6922

EPHEMERIS_TYPE = 0
CLASSIFICATION_TYPE = U
NORAD_CAT_ID   = 39358
ELEMENT_SET_NO = 999
REV_AT_EPOCH   = 66348
BSTAR          = .12869022E-3
MEAN_MOTION_DOT = .1283E-4
MEAN_MOTION_DDOT = 0

