ALOS (DAICHI)           
1 28931U 06002A   26014.85482910  .00000816  00000+0  14571-3 0  9996
2 28931  98.1133 331.1191 0002145  90.6145 269.5306 14.69602509 65572
H-2A R/B                
1 28932U 06002B   26014.94276871  .00004668  00000+0  24307-3 0  9991
2 28932  98.2328 157.4260 0054433  64.7177 295.9679 15.15289628 86293
RESURS-DK 1             
1 29228U 06021A   26014.96888180  .00001322  00000+0  82205-4 0  9991
2 29228  69.9334  15.9479 0005749 229.7286 130.3378 15.12372884 79401
CZ-4B R/B               
1 29507U 06046C   26014.57239359  .00002344  00000+0  12290-3 0  9994
2 29507  97.5694  59.6227 0035326  94.9540 265.5726 15.16249814 51848
CZ-2C R/B               
1 31114U 07010B   26014.83121089  .00000055  00000+0  43938-4 0  9993
2 31114  98.3972 130.8170 0060130  90.9134 269.8934 14.20224512972075
COSMO-SKYMED 1          
1 31598U 07023A   26014.96579488  .00001779  00000+0  16368-3 0  9997
2 31598  97.8843 205.5902 0001234  74.9723 285.1634 14.96049619  6871
COSMOS 2428             
1 31792U 07029A   26014.94235536  .00000325  00000+0  20007-3 0  9991
2 31792  70.9398 316.1693 0005669 339.1212  20.9677 14.12910030956503
SL-16 R/B               
1 31793U 07029B   26014.97644676 -.00000268  00000+0 -11390-3 0  9997
2 31793  70.9762 285.2933 0002247 273.5180 168.1988 14.14824115957776
KORONAS-FOTON           
1 33504U 09003A   26014.85954177  .00005565  00000+0  12988-3 0  9997
2 33504  82.4319 331.7689 0011215   3.5990 356.5335 15.41902957937447
CZ-2C R/B               
1 37731U 11030B   26014.83562140  .00000734  00000+0  99354-4 0  9995
2 37731  97.8454 333.2201 0053069 164.0207 256.3337 14.81010341782129
H-2A R/B                
1 38341U 12025E   26014.84699576  .00002048  00000+0  19121-3 0  9996
2 38341  98.4638 337.6435 0046185 127.4458 233.0976 14.94679847740173
SHIJIAN-16 (SJ-16)      
1 39358U 13057A   26014.92711483  .00001283  00000+0  12869-3 0  9994
2 39358  74.9735 286.8543 0017826 243.2442 116.6922 14.92139770663483
